H1 CPF 01  gfz 2021 02 23 13  5542 terrasarx 
H2 0702601  6201 31698    2021 02 23 12 59 42 2021 02 28 00 00 42   120 1 1  0 0 0
H9
10 0 59270  23022.000000  0   -1218995.342   -766762.651  -6742939.690
10 0 59270  23142.000000  0   -2103771.031   -634927.196  -6535345.842
10 0 59270  23262.000000  0   -2949561.457   -476948.567  -6213715.706
10 0 59270  23382.000000  0   -3741253.307   -296372.847  -5783589.328
10 0 59270  23502.000000  0   -4464707.795    -97396.571  -5252391.544
10 0 59270  23622.000000  0   -5107015.104    115222.646  -4629314.356
10 0 59270  23742.000000  0   -5656730.184    336269.508  -3925170.145
10 0 59270  23862.000000  0   -6104087.081    560188.230  -3152214.252
10 0 59270  23982.000000  0   -6441184.659    781210.099  -2323938.668
10 0 59270  24102.000000  0   -6662138.915    993489.252  -1454839.719
10 0 59270  24222.000000  0   -6763199.285   1191242.968   -560164.251
10 0 59270  24342.000000  0   -6742822.808   1368893.025    344364.220
10 0 59270  24462.000000  0   -6601702.387   1521204.342   1242828.474
10 0 59270  24582.000000  0   -6342752.413   1643418.329   2119405.602
10 0 59270  24702.000000  0   -5971049.246   1731376.705   2958655.058
10 0 59270  24822.000000  0   -5493727.474   1781632.053   3745799.343
10 0 59270  24942.000000  0   -4919834.758   1791542.390   4466989.954
10 0 59270  25062.000000  0   -4260150.872   1759347.946   5109553.027
10 0 59270  25182.000000  0   -3526976.262   1684228.527   5662211.052
10 0 59270  25302.000000  0   -2733894.995   1566340.299   6115278.469
10 0 59270  25422.000000  0   -1895515.151   1406831.619   6460827.750
10 0 59270  25542.000000  0   -1027193.321   1207836.414   6692821.446
10 0 59270  25662.000000  0    -144750.702    972446.524   6807210.337
10 0 59270  25782.000000  0     735814.770    704663.461   6801999.099
10 0 59270  25902.000000  0    1598617.238    409330.221   6677278.762
10 0 59270  26022.000000  0    2428168.105     92044.376   6435225.386
10 0 59270  26142.000000  0    3209653.692   -240946.888   6080065.766
10 0 59270  26262.000000  0    3929201.949   -582868.104   5618008.401
10 0 59270  26382.000000  0    4574132.266   -926551.099   5057140.456
10 0 59270  26502.000000  0    5133184.809  -1264582.891   4407292.617
10 0 59270  26622.000000  0    5596725.229  -1589462.305   3679871.614
10 0 59270  26742.000000  0    5956920.080  -1893763.084   2887662.766
10 0 59270  26862.000000  0    6207878.443  -2170299.498   2044605.000
10 0 59270  26982.000000  0    6345755.626  -2412290.184   1165542.726
10 0 59270  27102.000000  0    6368817.220  -2613516.264    265958.701
10 0 59270  27222.000000  0    6277460.144  -2768469.861   -638306.915
10 0 59270  27342.000000  0    6074190.968  -2872488.615  -1531344.809
10 0 59270  27462.000000  0    5763559.973  -2921873.099  -2397465.427
10 0 59270  27582.000000  0    5352055.333  -2913983.598  -3221480.784
10 0 59270  27702.000000  0    4847960.429  -2847314.533  -3988974.300
10 0 59270  27822.000000  0    4261178.568  -2721545.843  -4686553.171
10 0 59270  27942.000000  0    3603028.476  -2537569.415  -5302079.221
10 0 59270  28062.000000  0    2886016.800  -2297490.076  -5824871.946
10 0 59270  28182.000000  0    2123596.024  -2004603.034  -6245883.058
10 0 59270  28302.000000  0    1329910.305  -1663348.110  -6557843.784
10 0 59270  28422.000000  0     519532.348  -1279240.213  -6755379.660
10 0 59270  28542.000000  0    -292800.914   -858779.912  -6835092.873
10 0 59270  28662.000000  0   -1092450.664   -409344.762  -6795613.699
10 0 59270  28782.000000  0   -1865133.841     60937.195  -6637621.553
10 0 59270  28902.000000  0   -2597172.475    543330.898  -6363833.612
10 0 59270  29022.000000  0   -3275730.209   1028651.731  -5978963.029
10 0 59270  29142.000000  0   -3889034.746   1507435.707  -5489647.336
10 0 59270  29262.000000  0   -4426584.073   1970119.659  -4904345.529
10 0 59270  29382.000000  0   -4879331.389   2407230.205  -4233203.373
10 0 59270  29502.000000  0   -5239844.398   2809576.204  -3487887.094
10 0 59270  29622.000000  0   -5502436.195   3168440.456  -2681389.438
10 0 59270  29742.000000  0   -5663265.517   3475768.318  -1827808.887
10 0 59270  29862.000000  0   -5720401.698   3724347.880   -942104.381
10 0 59270  29982.000000  0   -5673851.988   3907976.146    -39830.288
10 0 59270  30102.000000  0   -5525550.845   4021607.979    863142.731
10 0 59270  30222.000000  0   -5279309.022   4061482.259   1750916.516
10 0 59270  30342.000000  0   -4940723.408   4025221.730   2607854.348
10 0 59270  30462.000000  0   -4517052.175   3911905.426   3418864.032
10 0 59270  30582.000000  0   -4017057.374   3722111.130   4169671.085
10 0 59270  30702.000000  0   -3450819.163   3457925.847   4847073.756
10 0 59270  30822.000000  0   -2829527.096   3122926.502   5439176.408
10 0 59270  30942.000000  0   -2165252.658   2722129.933   5935596.654
10 0 59270  31062.000000  0   -1470709.486   2261914.377   6327643.426
10 0 59270  31182.000000  0    -759005.456   1749913.663   6608462.505
10 0 59270  31302.000000  0     -43394.739   1194887.751   6773148.831
10 0 59270  31422.000000  0     662968.700    606571.138   6818827.538
10 0 59270  31542.000000  0    1347272.163     -4497.927   6744700.450
10 0 59270  31662.000000  0    1997275.398   -627165.315   6552059.600
10 0 59270  31782.000000  0    2601528.985  -1249864.158   6244266.715
10 0 59270  31902.000000  0    3149577.007  -1860828.715   5826699.093
10 0 59270  32022.000000  0    3632141.179  -2448317.181   5306661.245
10 0 59270  32142.000000  0    4041281.940  -3000838.157   4693262.837
10 0 59270  32262.000000  0    4370534.154  -3507378.035   3997264.880
10 0 59270  32382.000000  0    4615014.706  -3957624.381   3230894.761
10 0 59270  32502.000000  0    4771499.842  -4342180.130   2407632.610
10 0 59270  32622.000000  0    4838469.231  -4652762.732   1541971.477
10 0 59270  32742.000000  0    4816114.858  -4882383.694    649157.365
10 0 59270  32862.000000  0    4706315.012  -5025504.638   -255086.234
10 0 59270  32982.000000  0    4512574.182  -5078164.634  -1154843.337
10 0 59270  33102.000000  0    4239930.546  -5038075.939  -2034294.951
10 0 59270  33222.000000  0    3894831.995  -4904685.454  -2878004.805
10 0 59270  33342.000000  0    3484985.493  -4679200.688  -3671195.705
10 0 59270  33462.000000  0    3019183.695  -4364580.581  -4400010.115
10 0 59270  33582.000000  0    2507113.737  -3965491.555  -5051751.203
10 0 59270  33702.000000  0    1959152.304  -3488229.626  -5615097.679
10 0 59270  33822.000000  0    1386154.326  -2940613.909  -6080290.180
10 0 59270  33942.000000  0     799238.287  -2331853.757  -6439290.285
10 0 59270  34062.000000  0     209571.545  -1672389.960  -6685909.201
10 0 59270  34182.000000  0    -371838.966   -973713.869  -6815903.677
10 0 59270  34302.000000  0    -934346.849   -248168.685  -6827040.344
10 0 59270  34422.000000  0   -1467856.292    491264.087  -6719129.362
10 0 59270  34542.000000  0   -1962999.196   1231190.804  -6494026.777
10 0 59270  34662.000000  0   -2411295.709   1958042.306  -6155606.003
10 0 59270  34782.000000  0   -2805297.643   2658316.734  -5709698.962
10 0 59270  34902.000000  0   -3138712.758   3318827.363  -5164006.425
10 0 59270  35022.000000  0   -3406508.175   3926950.761  -4527977.000
10 0 59270  35142.000000  0   -3604990.563   4470870.868  -3812653.832
10 0 59270  35262.000000  0   -3731859.397   4939812.783  -3030490.857
10 0 59270  35382.000000  0   -3786233.090   5324261.564  -2195143.204
10 0 59270  35502.000000  0   -3768648.740   5616162.672  -1321233.001
10 0 59270  35622.000000  0   -3681032.836   5809098.795   -424092.653
10 0 59270  35742.000000  0   -3526642.688   5898434.801    480509.045
10 0 59270  35862.000000  0   -3309982.187   5881429.306   1376650.995
10 0 59270  35982.000000  0   -3036689.872   5757308.951   2248550.550
10 0 59270  36102.000000  0   -2713402.857   5527300.892   3080851.748
10 0 59270  36222.000000  0   -2347602.115   5194623.808   3858902.607
10 0 59270  36342.000000  0   -1947443.171   4764439.931   4569017.533
10 0 59270  36462.000000  0   -1521576.298   4243768.846   5198720.106
10 0 59270  36582.000000  0   -1078959.760   3641365.233   5736962.169
10 0 59270  36702.000000  0    -628671.707   2967563.049   6174313.793
10 0 59270  36822.000000  0    -179724.804   2234090.871   6503122.767
10 0 59270  36942.000000  0     259112.749   1453863.365   6717642.165
10 0 59270  37062.000000  0     679487.614    640750.652   6814125.642
10 0 59270  37182.000000  0    1073619.197   -190668.883   6790887.613
10 0 59270  37302.000000  0    1434442.628  -1025368.788   6648331.771
10 0 59270  37422.000000  0    1755735.230  -1848145.795   6388944.893
10 0 59270  37542.000000  0    2032224.281  -2643896.204   6017256.846
10 0 59270  37662.000000  0    2259674.595  -3397894.673   5539766.629
10 0 59270  37782.000000  0    2434954.289  -4096069.628   4964833.935
10 0 59270  37902.000000  0    2556077.177  -4725269.899   4302538.518
10 0 59270  38022.000000  0    2622222.771  -5273519.224   3564508.386
10 0 59270  38142.000000  0    2633731.459  -5730252.296   2763717.679
10 0 59270  38262.000000  0    2592074.519  -6086527.290   1914257.975
10 0 59270  38382.000000  0    2499800.005  -6335207.117   1031086.298
10 0 59270  38502.000000  0    2360456.509  -6471107.271    129757.340
10 0 59270  38622.000000  0    2178496.213  -6491107.796   -773858.151
10 0 59270  38742.000000  0    1959158.413  -6394222.422  -1663863.585
10 0 59270  38862.000000  0    1708336.091  -6181623.474  -2524624.429
10 0 59270  38982.000000  0    1432430.490  -5856624.479  -3341050.529
10 0 59270  39102.000000  0    1138197.736  -5424616.313  -4098863.676
10 0 59270  39222.000000  0     832592.770  -4892966.322  -4784846.320
10 0 59270  39342.000000  0     522612.371  -4270880.554  -5387067.629
10 0 59270  39462.000000  0     215141.733  -3569233.622  -5895083.457
99
